[
{"City": "Los Angeles", "Zip": "90012", "State": "CA", "Longitude": -118.251161, "StreetAddress": "225 South Grand", "UnitNumber": "20040_23442_1601"},
{"City": "Los Angeles", "Zip": "90012", "State": "CA", "Longitude": -118.251161, "StreetAddress": "225 South Grand", "UnitNumber": "20040_23479_1703"},
{"City": "Los Angeles", "Zip": "90012", "State": "CA", "Longitude": -118.251161, "StreetAddress": "225 South Grand", "UnitNumber": "20040_23492_1104"},
{"City": "Los Angeles", "Zip": "90012", "State": "CA", "Longitude": -118.251161, "StreetAddress": "225 South Grand", "UnitNumber": "20040_23522_0906"},
{"City": "Los Angeles", "Zip": "90012", "State": "CA", "Longitude": -118.251161, "StreetAddress": "225 South Grand", "UnitNumber": "20040_23532_0207"},
{"City": "Los Angeles", "Zip": "90012", "State": "CA", "Longitude": -118.251161, "StreetAddress": "225 South Grand", "UnitNumber": "20040_23557_1008"},
{"City": "Los Angeles", "Zip": "90012", "State": "CA", "Longitude": -118.251161, "StreetAddress": "225 South Grand", "UnitNumber": "20040_23597_1610"},
{"City": "Los Angeles", "Zip": "90012", "State": "CA", "Longitude": -118.251161, "StreetAddress": "225 South Grand", "UnitNumber": "20040_23628_0214"},
{"City": "New York", "Zip": "10007", "State": "NY", "Longitude": -74.0058711, "StreetAddress": "105 Duane Street", "UnitNumber": "75365_23756_006B"},
{"City": "New York", "Zip": "10007", "State": "NY", "Longitude": -74.0058711, "StreetAddress": "105 Duane Street", "UnitNumber": "75365_23862_016J"},
{"City": "New York", "Zip": "10007", "State": "NY", "Longitude": -74.0058711, "StreetAddress": "105 Duane Street", "UnitNumber": "75365_23950_026B"},
{"City": "New York", "Zip": "10007", "State": "NY", "Longitude": -74.0058711, "StreetAddress": "105 Duane Street", "UnitNumber": "75365_23964_027H"},
{"City": "New York", "Zip": "10007", "State": "NY", "Longitude": -74.0058711, "StreetAddress": "105 Duane Street", "UnitNumber": "75365_24048_038D"},
{"City": "New York", "Zip": "10007", "State": "NY", "Longitude": -74.0058711, "StreetAddress": "105 Duane Street", "UnitNumber": "75365_24094_044B"},
{"City": "New York", "Zip": "10007", "State": "NY", "Longitude": -74.0058711, "StreetAddress": "105 Duane Street", "UnitNumber": "75365_24111_046C"},
{"City": "San Francisco", "Zip": "94105", "State": "CA", "Longitude": -122.4019945, "StreetAddress": "680 Mission Street", "UnitNumber": "75380_24190_07J"},
{"City": "San Francisco", "Zip": "94105", "State": "CA", "Longitude": -122.4019945, "StreetAddress": "680 Mission Street", "UnitNumber": "75380_24193_08C"},
{"City": "San Francisco", "Zip": "94105", "State": "CA", "Longitude": -122.4019945, "StreetAddress": "680 Mission Street", "UnitNumber": "75380_24277_15E"},
{"City": "San Francisco", "Zip": "94105", "State": "CA", "Longitude": -122.4019945, "StreetAddress": "680 Mission Street", "UnitNumber": "75380_24284_15N"},
{"City": "San Francisco", "Zip": "94105", "State": "CA", "Longitude": -122.4019945, "StreetAddress": "680 Mission Street", "UnitNumber": "75380_24501_29F"},
{"City": "San Francisco", "Zip": "94105", "State": "CA", "Longitude": -122.4019945, "StreetAddress": "680 Mission Street", "UnitNumber": "75380_24530_31E"},
{"City": "San Francisco", "Zip": "94105", "State": "CA", "Longitude": -122.4019945, "StreetAddress": "680 Mission Street", "UnitNumber": "75380_24548_32K"},
{"City": "San Francisco", "Zip": "94105", "State": "CA", "Longitude": -122.4019945, "StreetAddress": "680 Mission Street", "UnitNumber": "75380_24624_38A"},
{"City": "San Francisco", "Zip": "94105", "State": "CA", "Longitude": -122.4019945, "StreetAddress": "680 Mission Street", "UnitNumber": "75380_24633_39B"},
{"City": "San Francisco", "Zip": "94105", "State": "CA", "Longitude": -122.4019945, "StreetAddress": "680 Mission Street", "UnitNumber": "75380_24634_39C"},
{"City": "San Francisco", "Zip": "94105", "State": "CA", "Longitude": "N/A", "StreetAddress": "680 Mission Street", "UnitNumber": "75380_24636_39E"},
{"City": "San Francisco", "Zip": "94105", "State": "CA", "Longitude": -122.4019945, "StreetAddress": "680 Mission Street", "UnitNumber": "75380_24646_40G"},
{"City": "New York", "Zip": "10013", "State": "NY", "Longitude": -74.00788299999999, "StreetAddress": "261 Hudson Street", "UnitNumber": "75606_35336_PH1B"},
{"City": "New York", "Zip": "10028", "State": "NY", "Longitude": -73.9502948, "StreetAddress": "400 E. 84th St.", "UnitNumber": "75609_25292_019A"},
{"City": "New York", "Zip": "10028", "State": "NY", "Longitude": -73.9502948, "StreetAddress": "400 E. 84th St.", "UnitNumber": "75609_25354_035C"},
{"City": "New York", "Zip": "10028", "State": "NY", "Longitude": -73.9502948, "StreetAddress": "400 E. 84th St.", "UnitNumber": "75609_25365_039B"},
{"City": "New York", "Zip": "10282", "State": "NY", "Longitude": -74.0150499, "StreetAddress": "400 Chambers St.", "UnitNumber": "75610_25405_003T"},
{"City": "New York", "Zip": "10282", "State": "NY", "Longitude": -74.0150499, "StreetAddress": "400 Chambers St.", "UnitNumber": "75610_25568_011G"},
{"City": "New York", "Zip": "10282", "State": "NY", "Longitude": -74.0150499, "StreetAddress": "400 Chambers St.", "UnitNumber": "75610_25632_016J"},
{"City": "New York", "Zip": "10282", "State": "NY", "Longitude": -74.0150499, "StreetAddress": "400 Chambers St.", "UnitNumber": "75610_25655_017R"},
{"City": "New York", "Zip": "10025", "State": "NY", "Longitude": -73.9732282, "StreetAddress": "255 W. 94th St.", "UnitNumber": "75617_25870_09I"},
{"City": "New York", "Zip": "10025", "State": "NY", "Longitude": -73.9732282, "StreetAddress": "255 W. 94th St.", "UnitNumber": "75617_25894_10K"},
{"City": "New York", "Zip": "10025", "State": "NY", "Longitude": -73.9732282, "StreetAddress": "255 W. 94th St.", "UnitNumber": "75617_25928_11W"},
{"City": "New York", "Zip": "10025", "State": "NY", "Longitude": -73.9732282, "StreetAddress": "255 W. 94th St.", "UnitNumber": "75617_25947_14A"},
{"City": "New York", "Zip": "10025", "State": "NY", "Longitude": -73.9732282, "StreetAddress": "255 W. 94th St.", "UnitNumber": "75617_26071_PHH"},
{"City": "Washington", "Zip": "20003", "State": "DC", "Longitude": -77.0079538, "StreetAddress": "28 K Street SE", "UnitNumber": "75627_35544_00806"},
{"City": "Washington", "Zip": "20003", "State": "DC", "Longitude": -77.0079538, "StreetAddress": "28 K Street SE", "UnitNumber": "75627_35602_00930"},
{"City": "Washington", "Zip": "20003", "State": "DC", "Longitude": -77.0079538, "StreetAddress": "28 K Street SE", "UnitNumber": "75627_35642_01036"},
{"City": "Washington", "Zip": "20003", "State": "DC", "Longitude": -77.0079538, "StreetAddress": "28 K Street SE", "UnitNumber": "75627_35695_01221"},
{"City": "Washington", "Zip": "20003", "State": "DC", "Longitude": -77.0079538, "StreetAddress": "28 K Street SE", "UnitNumber": "75627_35730_0PH22"},
{"City": "New York", "Zip": "10001", "State": "NY", "Longitude": -74.0018238, "StreetAddress": "505 West 29th Street", "UnitNumber": "75628_26084_14D"},
{"City": "New York", "Zip": "10001", "State": "NY", "Longitude": -74.0018238, "StreetAddress": "505 West 29th Street", "UnitNumber": "75628_26149_27J"},
{"City": "New York", "Zip": "10001", "State": "NY", "Longitude": -74.0018238, "StreetAddress": "505 West 29th Street", "UnitNumber": "75628_26178_04U"},
{"City": "New York", "Zip": "10001", "State": "NY", "Longitude": -74.0018238, "StreetAddress": "505 West 29th Street", "UnitNumber": "75628_26355_14B"},
{"City": "New York", "Zip": "10001", "State": "NY", "Longitude": -74.002736, "StreetAddress": "530 West 30th Street", "UnitNumber": "75629_36892_006F"},
{"City": "New York", "Zip": "10001", "State": "NY", "Longitude": -74.002736, "StreetAddress": "530 West 30th Street", "UnitNumber": "75629_36893_006G"},
{"City": "New York", "Zip": "10001", "State": "NY", "Longitude": -74.002736, "StreetAddress": "530 West 30th Street", "UnitNumber": "75629_36897_007D"},
{"City": "New York", "Zip": "10001", "State": "NY", "Longitude": -74.002736, "StreetAddress": "530 West 30th Street", "UnitNumber": "75629_36973_019C"},
{"City": "New York", "Zip": "10001", "State": "NY", "Longitude": -74.002736, "StreetAddress": "530 West 30th Street", "UnitNumber": "75629_37013_025D"},
{"City": "New York", "Zip": "10011", "State": "NY", "Longitude": -73.9966639, "StreetAddress": "180 W. 20th St.", "UnitNumber": "75630_26503_04R"},
{"City": "New York", "Zip": "10011", "State": "NY", "Longitude": -73.9966639, "StreetAddress": "180 W. 20th St.", "UnitNumber": "75630_26534_06E"},
{"City": "New York", "Zip": "10011", "State": "NY", "Longitude": -73.9966639, "StreetAddress": "180 W. 20th St.", "UnitNumber": "75630_26574_08C"},
{"City": "New York", "Zip": "10011", "State": "NY", "Longitude": -73.9966639, "StreetAddress": "180 W. 20th St.", "UnitNumber": "75630_26609_09U"},
{"City": "New York", "Zip": "10011", "State": "NY", "Longitude": -73.9966639, "StreetAddress": "180 W. 20th St.", "UnitNumber": "75630_26693_15T"},
{"City": "New York", "Zip": "10011", "State": "NY", "Longitude": -73.9977613, "StreetAddress": "130 W. 15th St.", "UnitNumber": "75631_26842_08R"},
{"City": "New York", "Zip": "10011", "State": "NY", "Longitude": -73.9977613, "StreetAddress": "130 W. 15th St.", "UnitNumber": "75631_26930_PHB"},
{"City": "New York", "Zip": "10011", "State": "NY", "Longitude": -74.0052934, "StreetAddress": "535 W. 23rd St.", "UnitNumber": "75632_27003_N06J"},
{"City": "New York", "Zip": "10011", "State": "NY", "Longitude": -74.0052934, "StreetAddress": "535 W. 23rd St.", "UnitNumber": "75632_27130_S04H"},
{"City": "New York", "Zip": "10011", "State": "NY", "Longitude": -74.0052934, "StreetAddress": "535 W. 23rd St.", "UnitNumber": "75632_27142_S05D"},
{"City": "New York", "Zip": "10019", "State": "NY", "Longitude": -73.98969819999999, "StreetAddress": "500 W. 56th St.", "UnitNumber": "75633_27405_1005"},
{"City": "New York", "Zip": "10019", "State": "NY", "Longitude": -73.98969819999999, "StreetAddress": "500 W. 56th St.", "UnitNumber": "75633_27434_1113"},
{"City": "New York", "Zip": "10019", "State": "NY", "Longitude": -73.98969819999999, "StreetAddress": "500 W. 56th St.", "UnitNumber": "75633_27563_2007"},
{"City": "New York", "Zip": "10019", "State": "NY", "Longitude": -73.98969819999999, "StreetAddress": "500 W. 56th St.", "UnitNumber": "75633_27597_2401"},
{"City": "New York", "Zip": "10019", "State": "NY", "Longitude": -73.98969819999999, "StreetAddress": "500 W. 56th St.", "UnitNumber": "75633_27602_2406"},
{"City": "New York", "Zip": "10282", "State": "NY", "Longitude": -74.0149991, "StreetAddress": "325 N. End Ave.", "UnitNumber": "75638_27812_09A"},
{"City": "New York", "Zip": "10282", "State": "NY", "Longitude": -74.0149991, "StreetAddress": "325 N. End Ave.", "UnitNumber": "75638_27953_20D"},
{"City": "New York", "Zip": "10282", "State": "NY", "Longitude": -74.0149991, "StreetAddress": "325 N. End Ave.", "UnitNumber": "75638_27964_23C"},
{"City": "New York", "Zip": "10128", "State": "NY", "Longitude": -73.947968, "StreetAddress": "215 East 96th St.", "UnitNumber": "75644_34787_18C"},
{"City": "New York", "Zip": "10128", "State": "NY", "Longitude": -73.947968, "StreetAddress": "215 East 96th St.", "UnitNumber": "75644_34842_22B"},
{"City": "New York", "Zip": "10011", "State": "NY", "Longitude": -74.0063783, "StreetAddress": "450 West 17th Street", "UnitNumber": "75646_28338_419"},
{"City": "New York", "Zip": "10011", "State": "NY", "Longitude": -74.0063783, "StreetAddress": "450 West 17th Street", "UnitNumber": "75646_28509_823"},
{"City": "New York", "Zip": "10011", "State": "NY", "Longitude": -74.0063783, "StreetAddress": "450 West 17th Street", "UnitNumber": "75646_28555_926"},
{"City": "New York", "Zip": "10044", "State": "NY", "Longitude": -73.9539084, "StreetAddress": "405 Main Street", "UnitNumber": "75648_28603_02V"},
{"City": "New York", "Zip": "10044", "State": "NY", "Longitude": -73.9539084, "StreetAddress": "405 Main Street", "UnitNumber": "75648_28707_08D"},
{"City": "New York", "Zip": "10044", "State": "NY", "Longitude": -73.9539084, "StreetAddress": "405 Main Street", "UnitNumber": "75648_28717_08P"},
{"City": "New York", "Zip": "10044", "State": "NY", "Longitude": -73.9539084, "StreetAddress": "405 Main Street", "UnitNumber": "75648_28758_11B"},
{"City": "New York", "Zip": "10044", "State": "NY", "Longitude": -73.9539084, "StreetAddress": "405 Main Street", "UnitNumber": "75648_28785_14C"},
{"City": "New York", "Zip": "10044", "State": "NY", "Longitude": -73.9513052, "StreetAddress": "480 Main Street", "UnitNumber": "75652_28881_20D"},
{"City": "New York", "Zip": "10044", "State": "NY", "Longitude": -73.9513052, "StreetAddress": "480 Main Street", "UnitNumber": "75652_28919_01G"},
{"City": "New York", "Zip": "10044", "State": "NY", "Longitude": -73.9513052, "StreetAddress": "480 Main Street", "UnitNumber": "75652_28961_17J"},
{"City": "New York", "Zip": "10044", "State": "NY", "Longitude": -73.9513052, "StreetAddress": "480 Main Street", "UnitNumber": "75652_28992_16L"},
{"City": "New York", "Zip": "10044", "State": "NY", "Longitude": -73.9513052, "StreetAddress": "480 Main Street", "UnitNumber": "75652_29003_10M"},
{"City": "New York", "Zip": "10013", "State": "NY", "Longitude": -74.0108577, "StreetAddress": "456 Washington Street", "UnitNumber": "75656_29122_06A"},
{"City": "New York", "Zip": "10013", "State": "NY", "Longitude": -74.0108577, "StreetAddress": "456 Washington Street", "UnitNumber": "75656_29153_09A"},
{"City": "Chicago", "Zip": "60611", "State": "IL", "Longitude": -87.6147292, "StreetAddress": "500 North Lake Shore Drive", "UnitNumber": "75658_30196_2208"},
{"City": "Chicago", "Zip": "60611", "State": "IL", "Longitude": -87.6147292, "StreetAddress": "500 North Lake Shore Drive", "UnitNumber": "75658_30290_2904"},
{"City": "Chicago", "Zip": "60611", "State": "IL", "Longitude": -87.6147292, "StreetAddress": "500 North Lake Shore Drive", "UnitNumber": "75658_30375_3604"},
{"City": "Chicago", "Zip": "60611", "State": "IL", "Longitude": -87.6147292, "StreetAddress": "500 North Lake Shore Drive", "UnitNumber": "75658_30376_3605"},
{"City": "Chicago", "Zip": "60611", "State": "IL", "Longitude": -87.6147292, "StreetAddress": "500 North Lake Shore Drive", "UnitNumber": "75658_30413_3906"},
{"City": "Boston", "Zip": "2116", "State": "MA", "Longitude": -71.0740513, "StreetAddress": "135 Clarendon Street", "UnitNumber": "75661_29197_03F"},
{"City": "Boston", "Zip": "2116", "State": "MA", "Longitude": -71.0740513, "StreetAddress": "135 Clarendon Street", "UnitNumber": "75661_29215_03X"},
{"City": "Boston", "Zip": "2116", "State": "MA", "Longitude": -71.0740513, "StreetAddress": "135 Clarendon Street", "UnitNumber": "75661_29252_05I"},
{"City": "Boston", "Zip": "2116", "State": "MA", "Longitude": -71.0740513, "StreetAddress": "135 Clarendon Street", "UnitNumber": "75661_29283_07S"},
{"City": "Boston", "Zip": "2116", "State": "MA", "Longitude": -71.0740513, "StreetAddress": "135 Clarendon Street", "UnitNumber": "75661_29333_11D"},
{"City": "Boston", "Zip": "2116", "State": "MA", "Longitude": -71.0740513, "StreetAddress": "135 Clarendon Street", "UnitNumber": "75661_29334_11R"},
{"City": "New York", "Zip": "10128", "State": "NY", "Longitude": -73.9502755, "StreetAddress": "205 East 92nd Street", "UnitNumber": "75663_29370_10A"},
{"City": "New York", "Zip": "10128", "State": "NY", "Longitude": -73.9502755, "StreetAddress": "205 East 92nd Street", "UnitNumber": "75663_29414_15E"},
{"City": "New York", "Zip": "10128", "State": "NY", "Longitude": -73.9502755, "StreetAddress": "205 East 92nd Street", "UnitNumber": "75663_29495_23F"},
{"City": "New York", "Zip": "10128", "State": "NY", "Longitude": -73.9502755, "StreetAddress": "205 East 92nd Street", "UnitNumber": "75663_29546_29A"},
{"City": "Chicago", "Zip": "60607", "State": "IL", "Longitude": -87.65328, "StreetAddress": "1035 West Van Buren Street", "UnitNumber": "75668_36160_902"},
{"City": "Chicago", "Zip": "60607", "State": "IL", "Longitude": -87.65328, "StreetAddress": "1035 West Van Buren Street", "UnitNumber": "75668_36163_905"},
{"City": "Chicago", "Zip": "60607", "State": "IL", "Longitude": -87.65328, "StreetAddress": "1035 West Van Buren Street", "UnitNumber": "75668_36171_914"},
{"City": "Chicago", "Zip": "60607", "State": "IL", "Longitude": -87.65328, "StreetAddress": "1035 West Van Buren Street", "UnitNumber": "75668_36240_1512"},
{"City": "Chicago", "Zip": "60607", "State": "IL", "Longitude": -87.65328, "StreetAddress": "1035 West Van Buren Street", "UnitNumber": "75668_36259_1703"},
{"City": "Chicago", "Zip": "60607", "State": "IL", "Longitude": -87.65328, "StreetAddress": "1035 West Van Buren Street", "UnitNumber": "75668_36276_1806"},
{"City": "Chicago", "Zip": "60607", "State": "IL", "Longitude": -87.65328, "StreetAddress": "1035 West Van Buren Street", "UnitNumber": "75668_36293_1909"},
{"City": "Chicago", "Zip": "60607", "State": "IL", "Longitude": -87.65328, "StreetAddress": "1035 West Van Buren Street", "UnitNumber": "75668_36323_2111"},
{"City": "Chicago", "Zip": "60607", "State": "IL", "Longitude": -87.65328, "StreetAddress": "1035 West Van Buren Street", "UnitNumber": "75668_36342_2302"},
{"City": "Chicago", "Zip": "60607", "State": "IL", "Longitude": -87.65328, "StreetAddress": "1035 West Van Buren Street", "UnitNumber": "75668_36355_2401"},
{"City": "Chicago", "Zip": "60607", "State": "IL", "Longitude": -87.65328, "StreetAddress": "1035 West Van Buren Street", "UnitNumber": "75668_36378_2510"},
{"City": "Chicago", "Zip": "60607", "State": "IL", "Longitude": -87.65328, "StreetAddress": "1035 West Van Buren Street", "UnitNumber": "75668_36402_2706"},
{"City": "Chicago", "Zip": "60607", "State": "IL", "Longitude": -87.65328, "StreetAddress": "1035 West Van Buren Street", "UnitNumber": "75668_36453_PH02"},
{"City": "New York", "Zip": "10007", "State": "NY", "Longitude": -74.01160089999999, "StreetAddress": "89 Murray St", "UnitNumber": "75677_29711_10P"},
{"City": "New York", "Zip": "10007", "State": "NY", "Longitude": -74.01160089999999, "StreetAddress": "89 Murray St", "UnitNumber": "75677_29718_11A"},
{"City": "New York", "Zip": "10003", "State": "NY", "Longitude": -73.9902571, "StreetAddress": "1 Union Square South", "UnitNumber": "75681_29840_015H"},
{"City": "New York", "Zip": "10003", "State": "NY", "Longitude": -73.9902571, "StreetAddress": "1 Union Square South", "UnitNumber": "75681_29849_016A"},
{"City": "New York", "Zip": "10003", "State": "NY", "Longitude": -73.9902571, "StreetAddress": "1 Union Square South", "UnitNumber": "75681_29862_016O"},
{"City": "New York", "Zip": "10003", "State": "NY", "Longitude": -73.9902571, "StreetAddress": "1 Union Square South", "UnitNumber": "75681_29971_024C"},
{"City": "New York", "Zip": "10003", "State": "NY", "Longitude": -73.9902571, "StreetAddress": "1 Union Square South", "UnitNumber": "75681_30003_023GH"},
{"City": "New York", "Zip": "10029", "State": "NY", "Longitude": -73.95280559999999, "StreetAddress": "1214 Fifth Avenue", "UnitNumber": "75686_30523_24E"},
{"City": "New York", "Zip": "10029", "State": "NY", "Longitude": -73.95280559999999, "StreetAddress": "1214 Fifth Avenue", "UnitNumber": "75686_30527_25C"},
{"City": "New York", "Zip": "10029", "State": "NY", "Longitude": -73.95280559999999, "StreetAddress": "1214 Fifth Avenue", "UnitNumber": "75686_30595_36A"},
{"City": "New York", "Zip": "10029", "State": "NY", "Longitude": -73.95280559999999, "StreetAddress": "1214 Fifth Avenue", "UnitNumber": "75686_30610_38C"},
{"City": "Boston", "Zip": "2116", "State": "MA", "Longitude": -71.0695033, "StreetAddress": "100 Arlington Street", "UnitNumber": "75694_30903_03G"},
{"City": "Boston", "Zip": "2116", "State": "MA", "Longitude": -71.0695033, "StreetAddress": "100 Arlington Street", "UnitNumber": "75694_30925_12A"},
{"City": "Boston", "Zip": "2116", "State": "MA", "Longitude": -71.0695033, "StreetAddress": "100 Arlington Street", "UnitNumber": "75694_30954_05F"},
{"City": "Boston", "Zip": "2116", "State": "MA", "Longitude": -71.0695033, "StreetAddress": "100 Arlington Street", "UnitNumber": "75694_30977_08D"},
{"City": "Boston", "Zip": "2116", "State": "MA", "Longitude": -71.0695033, "StreetAddress": "100 Arlington Street", "UnitNumber": "75694_30981_08L"},
{"City": "Boston", "Zip": "2116", "State": "MA", "Longitude": -71.0695033, "StreetAddress": "100 Arlington Street", "UnitNumber": "75694_31001_11D"},
{"City": "New York", "Zip": "10036", "State": "NY", "Longitude": -73.9944115, "StreetAddress": "450 W 42nd St.", "UnitNumber": "75699_31157_22D"},
{"City": "New York", "Zip": "10036", "State": "NY", "Longitude": -73.9944115, "StreetAddress": "450 W 42nd St.", "UnitNumber": "75699_31175_23Q"},
{"City": "New York", "Zip": "10036", "State": "NY", "Longitude": -73.9944115, "StreetAddress": "450 W 42nd St.", "UnitNumber": "75699_31265_31S"},
{"City": "New York", "Zip": "10036", "State": "NY", "Longitude": -73.9944115, "StreetAddress": "450 W 42nd St.", "UnitNumber": "75699_31348_37R"},
{"City": "New York", "Zip": "10036", "State": "NY", "Longitude": -73.9944115, "StreetAddress": "450 W 42nd St.", "UnitNumber": "75699_31385_40P"},
{"City": "New York", "Zip": "10036", "State": "NY", "Longitude": -73.9944115, "StreetAddress": "450 W 42nd St.", "UnitNumber": "75699_31523_50B"}
]